[{"OBJECT_NAME":"STARLINK-32437","OBJECT_ID":"2025-031W","EPOCH":"2026-03-09T04:32:26.650176","MEAN_MOTION":15.27587016,"ECCENTRICITY":8.974e-5,"INCLINATION":42.9988,"RA_OF_ASC_NODE":146.6039,"ARG_OF_PERICENTER":247.7057,"MEAN_ANOMALY":112.37,"EPHEMERIS_TYPE":0,"CLASSIFICATION_TYPE":"U","NORAD_CAT_ID":63001,"ELEMENT_SET_NO":999,"REV_AT_EPOCH":6101,"BSTAR":0.0013622232,"MEAN_MOTION_DOT":0.00037422,"MEAN_MOTION_DDOT":0},{"OBJECT_NAME":"USA 17","OBJECT_ID":"1986-014F","EPOCH":"2026-03-09T22:10:30.468864","MEAN_MOTION":13.73458775,"ECCENTRICITY":0.07946653,"INCLINATION":63.303,"RA_OF_ASC_NODE":12.8302,"ARG_OF_PERICENTER":113.8676,"MEAN_ANOMALY":254.7675,"EPHEMERIS_TYPE":0,"CLASSIFICATION_TYPE":"U","NORAD_CAT_ID":16625,"ELEMENT_SET_NO":999,"REV_AT_EPOCH":32918,"BSTAR":0.00045015572,"MEAN_MOTION_DOT":4.832e-5,"MEAN_MOTION_DDOT":0}]
